stk.v.4.3 

BEGIN Ephemeris 
 
NumberOfEphemerisPoints		146 
ScenarioEpoch	    2 Jan 2020 13: 6:54.817933738 
InterpolationMethod		Lagrange 
InterpolationOrder		5 
CentralBody				Earth 
CoordinateSystem			TEME 
CoordinateSystemEpoch	  2 Jan 2020 13: 6:54.817933738 
DistanceUnit			Kilometers 
 
EphemerisTimePosVel 
 
       0.00000000   -4852.13630874   -5263.99883264       0.03946617  0.350980261 -0.310707213  7.448474307
 END Ephemeris 
